STARLINK-32747          
1 62600U 25008P   26068.57883420  .00023576  00000+0  86309-3 0  9999
2 62600  42.9979 278.8800 0000264 266.5964  93.4858 15.27596418 65544
FLOCK 4G-1              
1 62666U 25009BK  26068.75951132  .00013534  00000+0  50654-3 0  9995
2 62666  97.4059 151.3158 0003180 323.1401  36.9619 15.27421081 63725
